H1 CPF  1  DGF 2022 04 24 11  6141 larets     NONE      
H2   304206 5557    27944 2022 04 24 00 00 00 2022 05 01 00 00 00    30 1 1  0 0 0
H5  0.0650
H9
10 0 59698  64800.000000  0      -3754477.393       5886703.836      -1074519.682
10 0 59698  64830.000000  0      -3730138.134       5937535.799       -853495.954
10 0 59698  64860.000000  0      -3701806.770       5982230.482       -631600.095
10 0 59698  64890.000000  0      -3669538.011       6020723.570       -409058.664
10 0 59698  64920.000000  0      -3633390.890       6052957.335       -186099.008
10 0 59698  64950.000000  0      -3593428.679       6078880.721         37050.975
10 0 59698  64980.000000  0      -3549718.798       6098449.426        260163.081
10 0 59698  65010.000000  0      -3502332.716       6111625.964        483009.041
10 0 59698  65040.000000  0      -3451345.851       6118379.732        705360.767
10 0 59698  65070.000000  0      -3396837.464       6118687.066        926990.586
10 0 59698  65100.000000  0      -3338890.548       6112531.285       1147671.492
10 0 59698  65130.000000  0      -3277591.713       6099902.728       1367177.387
10 0 59698  65160.000000  0      -3213031.061       6080798.784       1585283.321
10 0 59698  65190.000000  0      -3145302.067       6055223.906       1801765.730
10 0 59698  65220.000000  0      -3074501.446       6023189.624       2016402.678
10 0 59698  65250.000000  0      -3000729.028       5984714.545       2228974.087
10 0 59698  65280.000000  0      -2924087.618       5939824.350       2439261.973
10 0 59698  65310.000000  0      -2844682.861       5888551.775       2647050.674
10 0 59698  65340.000000  0      -2762623.098       5830936.592       2852127.078
10 0 59698  65370.000000  0      -2678019.230       5767025.578       3054280.847
10 0 59698  65400.000000  0      -2590984.564       5696872.477       3253304.639
10 0 59698  65430.000000  0      -2501634.670       5620537.954       3448994.330
10 0 59698  65460.000000  0      -2410087.225       5538089.536       3641149.222
10 0 59698  65490.000000  0      -2316461.866       5449601.554       3829572.262
10 0 59698  65520.000000  0      -2220880.030       5355155.062       4014070.240
10 0 59698  65550.000000  0      -2123464.801       5254837.769       4194453.997
10 0 59698  65580.000000  0      -2024340.755       5148743.943       4370538.615
10 0 59698  65610.000000  0      -1923633.797       5036974.326       4542143.616
10 0 59698  65640.000000  0      -1821471.004       4919636.030       4709093.152
10 0 59698  65670.000000  0      -1717980.463       4796842.421       4871216.181
10 0 59698  65700.000000  0      -1613291.106       4668713.011       5028346.651
10 0 59698  65730.000000  0      -1507532.551       4535373.326       5180323.662
10 0 59698  65760.000000  0      -1400834.942       4396954.775       5326991.631
10 0 59698  65790.000000  0      -1293328.789       4253594.522       5468200.450
10 0 59698  65820.000000  0      -1185144.811       4105435.335       5603805.642
10 0 59698  65850.000000  0      -1076413.774       3952625.441       5733668.503
10 0 59698  65880.000000  0       -967266.337       3795318.368       5857656.246
10 0 59698  65910.000000  0       -857832.888       3633672.785       5975642.132
10 0 59698  65940.000000  0       -748243.394       3467852.329       6087505.601
10 0 59698  65970.000000  0       -638627.239       3298025.438       6193132.383
10 0 59698  66000.000000  0       -529113.079       3124365.173       6292414.617
10 0 59698  66030.000000  0       -419828.687       2947049.035       6385250.951
10 0 59698  66060.000000  0       -310900.808       2766258.782       6471546.648
10 0 59698  66090.000000  0       -202455.007       2582180.239       6551213.678
10 0 59698  66120.000000  0        -94615.530       2395003.101       6624170.806
10 0 59698  66150.000000  0         12494.848       2204920.731       6690343.676
10 0 59698  66180.000000  0        118754.955       2012129.957       6749664.878
10 0 59698  66210.000000  0        224045.367       1816830.858       6802074.016
10 0 59698  66240.000000  0        328248.537       1619226.555       6847517.764
10 0 59698  66270.000000  0        431248.927       1419522.999       6885949.914
10 0 59698  66300.000000  0        532933.137       1217928.751       6917331.419
10 0 59698  66330.000000  0        633190.033       1014654.766       6941630.433
10 0 59698  66360.000000  0        731910.862        809914.166       6958822.339
10 0 59698  66390.000000  0        828989.375        603922.023       6968889.775
10 0 59698  66420.000000  0        924321.942        396895.126       6971822.649
10 0 59698  66450.000000  0       1017807.662        189051.753       6967618.154
10 0 59698  66480.000000  0       1109348.470        -19388.563       6956280.769
10 0 59698  66510.000000  0       1198849.240       -228205.270       6937822.256
10 0 59698  66540.000000  0       1286217.888       -437177.031       6912261.644
10 0 59698  66570.000000  0       1371365.464       -646081.967       6879625.214
10 0 59698  66600.000000  0       1454206.248       -854697.889       6839946.461
10 0 59698  66630.000000  0       1534657.830      -1062802.531       6793266.070
10 0 59698  66660.000000  0       1612641.200      -1270173.796       6739631.874
10 0 59698  66690.000000  0       1688080.822      -1476589.991       6679098.813
10 0 59698  66720.000000  0       1760904.712      -1681830.071       6611728.874
10 0 59698  66750.000000  0       1831044.505      -1885673.878       6537591.031
10 0 59698  66780.000000  0       1898435.523      -2087902.384       6456761.177
10 0 59698  66810.000000  0       1963016.832      -2288297.922       6369322.047
10 0 59698  66840.000000  0       2024731.299      -2486644.431       6275363.136
10 0 59698  66870.000000  0       2083525.647      -2682727.690       6174980.613
10 0 59698  66900.000000  0       2139350.496      -2876335.554       6068277.223
10 0 59698  66930.000000  0       2192160.406      -3067258.192       5955362.179
10 0 59698  66960.000000  0       2241913.915      -3255288.312       5836351.056
10 0 59698  66990.000000  0       2288573.567      -3440221.394       5711365.672
10 0 59698  67020.000000  0       2332105.936      -3621855.915       5580533.969
10 0 59698  67050.000000  0       2372481.656      -3799993.573       5443989.880
10 0 59698  67080.000000  0       2409675.424      -3974439.509       5301873.198
10 0 59698  67110.000000  0       2443666.026      -4145002.526       5154329.436
10 0 59698  67140.000000  0       2474436.332      -4311495.305       5001509.677
10 0 59698  67170.000000  0       2501973.308      -4473734.616       4843570.424
10 0 59698  67200.000000  0       2526268.007      -4631541.529       4680673.438
10 0 59698  67230.000000  0       2547315.569      -4784741.620       4512985.569
10 0 59698  67260.000000  0       2565115.201      -4933165.163       4340678.585
10 0 59698  67290.000000  0       2579670.158      -5076647.330       4163928.995
10 0 59698  67320.000000  0       2590987.720      -5215028.376       3982917.868
10 0 59698  67350.000000  0       2599079.163      -5348153.829       3797830.646
10 0 59698  67380.000000  0       2603959.721      -5475874.662       3608856.951
10 0 59698  67410.000000  0       2605648.549      -5598047.474       3416190.389
10 0 59698  67440.000000  0       2604168.682      -5714534.653       3220028.348
10 0 59698  67470.000000  0       2599546.982      -5825204.538       3020571.786
10 0 59698  67500.000000  0       2591814.086      -5929931.568       2818025.026
10 0 59698  67530.000000  0       2581004.344      -6028596.430       2612595.537
10 0 59698  67560.000000  0       2567155.764      -6121086.198       2404493.720
10 0 59698  67590.000000  0       2550309.934      -6207294.462       2193932.684
10 0 59698  67620.000000  0       2530511.960      -6287121.450       1981128.024
10 0 59698  67650.000000  0       2507810.385      -6360474.146       1766297.605
10 0 59698  67680.000000  0       2482257.115      -6427266.411       1549661.324
10 0 59698  67710.000000  0       2453907.329      -6487419.076       1331440.883
10 0 59698  67740.000000  0       2422819.393      -6540860.042       1111859.552
10 0 59698  67770.000000  0       2389054.769      -6587524.367        891141.941
10 0 59698  67800.000000  0       2352677.916      -6627354.343        669513.760
10 0 59698  67830.000000  0       2313756.195      -6660299.572        447201.578
10 0 59698  67860.000000  0       2272359.766      -6686317.020        224432.585
10 0 59698  67890.000000  0       2228561.482      -6705371.076          1434.350
10 0 59698  67920.000000  0       2182436.779      -6717433.593       -221565.421
10 0 59698  67950.000000  0       2134063.563      -6722483.921       -444339.127
10 0 59698  67980.000000  0       2083522.092      -6720508.933       -666659.512
10 0 59698  68010.000000  0       2030894.854      -6711503.033       -888299.903
10 0 59698  68040.000000  0       1976266.447      -6695468.168      -1109034.445
10 0 59698  68070.000000  0       1919723.459      -6672413.821      -1328638.327
10 0 59698  68100.000000  0       1861354.342      -6642357.003      -1546888.021
10 0 59698  68130.000000  0       1801249.290      -6605322.247      -1763561.504
10 0 59698  68160.000000  0       1739500.106      -6561341.580      -1978438.501
10 0 59698  68190.000000  0       1676200.072      -6510454.487      -2191300.716
10 0 59698  68220.000000  0       1611443.812      -6452707.855      -2401932.057
10 0 59698  68250.000000  0       1545327.167      -6388155.912      -2610118.851
10 0 59698  68280.000000  0       1477947.061      -6316860.171      -2815650.052
10 0 59698  68310.000000  0       1409401.375      -6238889.359      -3018317.460
10 0 59698  68340.000000  0       1339788.811      -6154319.344      -3217915.927
10 0 59698  68370.000000  0       1269208.756      -6063233.050      -3414243.564
99
